     3.00           N                   E                   RINEX VERSION / TYPE
BRD_USR             ESA                 20190107 061940  UTCPGM / RUN BY / DATE
 GAL   5.1250E+01  3.1250E-02 -4.3335E-03  0.0000E+00       IONOSPHERIC CORR
GAUT  0.0000000000E+00 0.000000000E+00  86400 2035 GSTB   0 TIME SYSTEM CORR
GPGA -2.1245796233E-09 4.440892099E-15  86400 2035 GSTB   0 TIME SYSTEM CORR
                                                            END OF HEADER
E02 2019 01 07 04 40 00 4.229170735925E-05 1.520561454527E-12 0.000000000000E+00
     4.400000000000E+01 1.416562500000E+02 2.314739275325E-09 7.289756615852E-01
     6.526708602905E-06 2.684384817258E-04 1.214817166328E-05 5.440630256653E+03
     1.032000000000E+05 1.303851604462E-08-2.946806512811E+00-2.980232238770E-08
     9.903449841409E-01 9.565625000000E+01-2.703667163961E-01-5.029138055215E-09
    -2.228664261384E-10 2.580000000000E+02 2.035000000000E+03 0.000000000000E+00
     3.120000000000E+00 0.000000000000E+00-5.820766091347E-09 0.000000000000E+00
     1.039000000000E+05 0.000000000000E+00 0.000000000000E+00 0.000000000000E+00
E03 2019 01 07 04 40 00-1.193830976263E-04-4.320099833421E-12 0.000000000000E+00
     4.400000000000E+01 3.340625000000E+01 3.593363963747E-09 1.919607256079E+00
     1.505017280579E-06 2.714276779443E-04 6.241723895073E-06 5.440606605530E+03
     1.032000000000E+05 5.774199962616E-08 1.243998243303E+00 3.539025783539E-08
     9.522358438279E-01 2.039687500000E+02 6.294603564190E-01-5.683451024262E-09
     4.960920927984E-10 2.580000000000E+02 2.035000000000E+03 0.000000000000E+00
     3.120000000000E+00 0.000000000000E+00-1.862645149231E-09 0.000000000000E+00
     1.039000000000E+05 0.000000000000E+00 0.000000000000E+00 0.000000000000E+00
E05 2019 01 07 04 40 00 1.293561654165E-04-6.522782314278E-12 0.000000000000E+00
     4.400000000000E+01 3.734375000000E+01 3.572648815163E-09 1.769159796744E+00
     1.750886440277E-06 1.422200584784E-04 6.001442670822E-06 5.440606445312E+03
     1.032000000000E+05 3.166496753693E-08 1.243981102292E+00 4.656612873077E-08
     9.522490042390E-01 2.087500000000E+02 1.567381622913E+00-5.708452065656E-09
     5.428797559780E-10 2.580000000000E+02 2.035000000000E+03 0.000000000000E+00
     3.120000000000E+00 0.000000000000E+00-1.396983861923E-09 0.000000000000E+00
     1.039000000000E+05 0.000000000000E+00 0.000000000000E+00 0.000000000000E+00
E08 2019 01 07 04 40 00 6.428340333514E-03-7.474909580196E-12 0.000000000000E+00
     4.400000000000E+01 2.646875000000E+01 3.383712373774E-09 1.280267578341E+00
     1.251697540283E-06 2.237778389826E-04 6.580725312233E-06 5.440607036591E+03
     1.032000000000E+05 2.235174179077E-08 1.235362433073E+00-6.332993507385E-08
     9.582236099510E-01 2.010312500000E+02 4.850201097773E-01-5.522730043874E-09
     5.078782980268E-10 2.580000000000E+02 2.035000000000E+03 0.000000000000E+00
     3.120000000000E+00 0.000000000000E+00-8.381903171539E-09 0.000000000000E+00
     1.039000000000E+05 0.000000000000E+00 0.000000000000E+00 0.000000000000E+00
E09 2019 01 07 04 40 00 6.565693183802E-03-1.136868377216E-11 0.000000000000E+00
     4.400000000000E+01 4.012500000000E+01 3.406927626496E-09-2.282522847118E+00
     1.925975084305E-06 2.458138624206E-04 6.150454282761E-06 5.440607444763E+03
     1.032000000000E+05-5.587935447693E-08 1.235358979123E+00 5.774199962616E-08
     9.582532281904E-01 2.085625000000E+02 1.195646618109E-01-5.598090325789E-09
     5.310935507496E-10 2.580000000000E+02 2.035000000000E+03 0.000000000000E+00
     3.120000000000E+00 0.000000000000E+00-3.259629011154E-09 0.000000000000E+00
     1.039000000000E+05 0.000000000000E+00 0.000000000000E+00 0.000000000000E+00
E11 2019 01 07 04 40 00 5.719207809307E-03 9.237055564881E-13 0.000000000000E+00
     4.400000000000E+01-1.516250000000E+02 2.973338137182E-09 2.922076956463E-01
    -7.096678018570E-06 2.442868426442E-04 1.240521669388E-06 5.440604139328E+03
     1.032000000000E+05-2.980232238770E-08-8.611802940159E-01-1.676380634308E-08
     9.819404729621E-01 3.227500000000E+02-3.598169359797E-01-5.727738583303E-09
    -3.478716331070E-10 2.580000000000E+02 2.035000000000E+03 0.000000000000E+00
     3.120000000000E+00 0.000000000000E+00-1.816079020500E-08 0.000000000000E+00
     1.039000000000E+05 0.000000000000E+00 0.000000000000E+00 0.000000000000E+00
E12 2019 01 07 04 40 00 5.887119623367E-03 8.435563358944E-11 0.000000000000E+00
     4.400000000000E+01-1.404687500000E+02 2.967266455701E-09 1.627128872312E+00
    -6.455928087234E-06 3.734992351383E-04 9.573996067047E-07 5.440609903336E+03
     1.032000000000E+05 0.000000000000E+00-8.611955463998E-01-9.685754776001E-08
     9.819541424686E-01 3.268125000000E+02-8.910805387040E-01-5.787026767179E-09
    -3.553719455251E-10 2.580000000000E+02 2.035000000000E+03 0.000000000000E+00
     3.120000000000E+00 0.000000000000E+00-1.559965312481E-08 0.000000000000E+00
     1.039000000000E+05 0.000000000000E+00 0.000000000000E+00 0.000000000000E+00
E15 2019 01 07 04 40 00 9.236428886652E-04-1.080024958355E-12 0.000000000000E+00
     4.400000000000E+01-1.551875000000E+02 3.032269163325E-09-7.396914838508E-01
    -7.150694727898E-06 3.834383096546E-04 3.315508365631E-07 5.440595785141E+03
     1.032000000000E+05-2.421438694000E-08-8.664895528822E-01-1.490116119385E-08
     9.851385523235E-01 3.425312500000E+02-1.680895073307E+00-5.842743373714E-09
    -3.607293115380E-10 2.580000000000E+02 2.035000000000E+03 0.000000000000E+00
     3.120000000000E+00 5.600000000000E+01 9.313225746155E-10 0.000000000000E+00
     1.039000000000E+05 0.000000000000E+00 0.000000000000E+00 0.000000000000E+00
E18 2019 01 07 04 40 00 5.625016405247E-03-2.845013113983E-11 0.000000000000E+00
     4.400000000000E+01-4.453125000000E+01 1.877578208669E-09-1.797605242548E+00
     5.979090929031E-07 1.664203645196E-01-5.096197128296E-06 5.289384372711E+03
     1.032000000000E+05 4.433095455170E-06-1.444772233591E+00-2.723187208176E-06
     8.817712112303E-01 4.240000000000E+02 1.438417146294E+00-2.405814497545E-09
     1.178977680581E-09 2.580000000000E+02 2.035000000000E+03 0.000000000000E+00
     3.120000000000E+00 5.600000000000E+01 1.420266926289E-08 0.000000000000E+00
     1.039000000000E+05 0.000000000000E+00 0.000000000000E+00 0.000000000000E+00
E19 2019 01 07 04 40 00-9.318231604993E-06 2.700062395888E-13 0.000000000000E+00
     4.400000000000E+01 3.184375000000E+01 3.419428147193E-09-2.821832436373E+00
     1.430511474609E-06 1.374570420012E-04 6.267800927162E-06 5.440611324310E+03
     1.032000000000E+05-7.450580596924E-09 1.240715801845E+00-3.539025783539E-08
     9.580080401945E-01 2.047187500000E+02 2.309038218287E+00-5.615233897031E-09
     5.189501877869E-10 2.580000000000E+02 2.035000000000E+03 0.000000000000E+00
     3.120000000000E+00 0.000000000000E+00-8.614733815193E-09 0.000000000000E+00
     1.039000000000E+05 0.000000000000E+00 0.000000000000E+00 0.000000000000E+00
E21 2019 01 07 04 40 00-5.131933721714E-04-1.918465386552E-12 0.000000000000E+00
     4.400000000000E+01 1.103437500000E+02 2.329739900161E-09-1.540045970171E+00
     4.976987838745E-06 5.011889152229E-05 1.279078423977E-05 5.440637495041E+03
     1.032000000000E+05-4.842877388000E-08-2.949380701499E+00-7.450580596924E-09
     9.899005349992E-01 7.746875000000E+01-3.395536846196E-01-5.043781522317E-09
    -2.207234797332E-10 2.580000000000E+02 2.035000000000E+03 0.000000000000E+00
     3.120000000000E+00 0.000000000000E+00-2.793967723846E-09 0.000000000000E+00
     1.039000000000E+05 0.000000000000E+00 0.000000000000E+00 0.000000000000E+00
E24 2019 01 07 04 40 00 6.298926775344E-03-1.963940121641E-11 0.000000000000E+00
     4.400000000000E+01 1.255625000000E+02 2.358312518897E-09 1.580573757333E+00
     5.776062607765E-06 4.619474057108E-04 1.159869134426E-05 5.440625110626E+03
     1.032000000000E+05 4.284083843231E-08-2.943304232801E+00 9.313225746155E-09
     9.879039166092E-01 1.027500000000E+02 4.458172933712E-01-5.060210778090E-09
    -1.789360248322E-10 2.580000000000E+02 2.035000000000E+03 0.000000000000E+00
     3.120000000000E+00 0.000000000000E+00 4.284083843231E-08 0.000000000000E+00
     1.039000000000E+05 0.000000000000E+00 0.000000000000E+00 0.000000000000E+00
E26 2019 01 07 04 40 00 5.048235238064E-03-4.330047431722E-11 0.000000000000E+00
     4.400000000000E+01-1.364062500000E+02 3.115486915392E-09-1.888620585520E+00
    -6.360933184624E-06 3.258902579546E-04 2.197921276093E-07 5.440606815338E+03
     1.032000000000E+05 3.166496753693E-08-8.575457354906E-01 3.725290298462E-08
     9.782989494838E-01 3.436250000000E+02-2.095977129312E+00-5.814527912712E-09
    -2.803688213439E-10 2.580000000000E+02 2.035000000000E+03 0.000000000000E+00
     3.120000000000E+00 0.000000000000E+00 1.164153218269E-09 0.000000000000E+00
     1.039000000000E+05 0.000000000000E+00 0.000000000000E+00 0.000000000000E+00
E30 2019 01 07 04 40 00 5.208546645008E-03-3.052491592825E-11 0.000000000000E+00
     4.400000000000E+01 1.297500000000E+02 2.410100390355E-09-8.249273670674E-01
     6.049871444702E-06 2.965638414025E-04 1.272186636925E-05 5.440622762680E+03
     1.032000000000E+05-1.136213541031E-07-2.943359553048E+00-8.009374141693E-08
     9.878879269146E-01 7.925000000000E+01 4.976082009332E-01-5.139499795082E-09
    -2.171519023912E-10 2.580000000000E+02 2.035000000000E+03 0.000000000000E+00
     3.120000000000E+00 0.000000000000E+00-3.026798367500E-09 0.000000000000E+00
     1.039000000000E+05 0.000000000000E+00 0.000000000000E+00 0.000000000000E+00
